STARLINK-31933          
1 59874U 24098S   26068.01466107  .00002962  00000+0  11716-3 0  9990
2 59874  42.9985 281.7463 0000885 283.3365  76.7387 15.27564911101746
PHISAT 2                
1 60470U 24149C   26068.78834181  .00008925  00000+0  31421-3 0  9996
2 60470  97.3806 148.6498 0001175 168.6230 191.5037 15.29548631 86792
